HAWK-B                  
1 43794U 18099AN  26068.71398351  .00007505  00000+0  33189-3 0  9996
2 43794  97.4099 121.8943 0031356 293.4422  66.3518 15.21533472397909
OTTER                   
1 62623U 25009Q   26068.72300813  .00012198  00000+0  45151-3 0  9990
2 62623  97.4065 151.3812 0003573 310.7710  49.3219 15.27809545 63722
